HAWK-11A                
1 62382U 24247F   26068.51231358  .00009457  00000+0  34106-3 0  9991
2 62382  44.9941 114.3328 0005466 327.3713  32.6832 15.28849427 67741
STARLINK-35148          
1 65844U 25221X   26068.44582890  .00030855  00000+0  10496-2 0  9993
2 65844  53.1599  89.6461 0001378  71.1227 288.9923 15.30198042 24699
